NORAD_CAT_ID,OBJECT_NAME,OBJECT_TYPE,EPOCH,MEAN_MOTION,ECCENTRICITY,INCLINATION,RA_OF_ASC_NODE,ARG_OF_PERICENTER,MEAN_ANOMALY,BSTAR,MEAN_MOTION_DOT,MEAN_MOTION_DDOT,TLE_LINE0,TLE_LINE1,TLE_LINE2,SEMIMAJOR_AXIS,PERIOD,APOGEE,PERIGEE,DECAYED
53012.0,STARLINK-4271,PAYLOAD,2023-10-05 19:41:24,15.08843044,0.0001201,53.216,110.9419,94.7098,265.4031,0.00011109,1.481e-05,0.0,0 STARLINK-4271,1 53012U 22076AC  23278.82041991  .00001481  00000-0  11109-3 0  9993,2 53012  53.2160 110.9419 0001201  94.7098 265.4031 15.08843044 69582,6917.871,95.437,540.567,538.905,0.0
53012.0,STARLINK-4271,PAYLOAD,2023-10-06 13:10:39,15.08825513,0.0001247,53.2163,107.6698,100.533,259.5803,0.00015868,2.237e-05,0.0,0 STARLINK-4271,1 53012U 22076AC  23279.54906960  .00002237  00000-0  15868-3 0  9995,2 53012  53.2163 107.6698 0001247 100.5330 259.5803 15.08825513 69225,6917.925,95.438,540.652,538.927,0.0
53012.0,STARLINK-4271,PAYLOAD,2023-10-06 19:32:12,15.08836832,0.0001144,53.2154,106.4833,93.5137,266.5986,-6.9875e-05,-1.4e-05,0.0,0 STARLINK-4271,1 53012U 22076AC  23279.81402835 -.00001400  00000-0 -69875-4 0  9998,2 53012  53.2154 106.4833 0001144  93.5137 266.5986 15.08836832 69737,6917.89,95.438,540.546,538.964,0.0
53012.0,STARLINK-4271,PAYLOAD,2023-10-07 13:01:26,15.08845578,0.0001036,53.2157,103.2115,90.9476,269.1635,-0.00016671,-2.94e-05,0.0,0 STARLINK-4271,1 53012U 22076AC  23280.54266841 -.00002940  00000-0 -16671-3 0  9990,2 53012  53.2157 103.2115 0001036  90.9476 269.1635 15.08845578 69372,6917.863,95.437,540.445,539.012,0.0
53012.0,STARLINK-4271,PAYLOAD,2023-10-07 19:22:59,15.08844943,0.0001122,53.2156,102.0224,91.1293,268.9828,0.00035973,5.443e-05,0.0,0 STARLINK-4271,1 53012U 22076AC  23280.80763066  .00005443  00000-0  35973-3 0  9995,2 53012  53.2156 102.0224 0001122  91.1293 268.9828 15.08844943 69416,6917.865,95.437,540.506,538.954,0.0
53012.0,STARLINK-4271,PAYLOAD,2023-10-07 22:33:45,15.08848755,0.0001131,53.2156,101.4275,90.6215,269.4907,0.00042499,6.484e-05,0.0,0 STARLINK-4271,1 53012U 22076AC  23280.94010963  .00006484  00000-0  42499-3 0  9998,2 53012  53.2156 101.4275 0001131  90.6215 269.4907 15.08848755 69906,6917.854,95.437,540.501,538.936,0.0
53012.0,STARLINK-4271,PAYLOAD,2023-10-08 04:55:18,15.08841415,9.81e-05,53.2163,100.2387,77.6448,282.4654,0.00029919,4.477e-05,0.0,0 STARLINK-4271,1 53012U 22076AC  23281.20507300  .00004477  00000-0  29919-3 0  9996,2 53012  53.2163 100.2387 0000981  77.6448 282.4654 15.08841415 69944,6917.876,95.437,540.42,539.062,0.0
53012.0,STARLINK-4271,PAYLOAD,2023-10-08 20:49:09,15.08843646,0.0001474,53.2161,97.2638,79.9243,280.1916,0.0002379,3.501e-05,0.0,0 STARLINK-4271,1 53012U 22076AC  23281.86747484  .00003501  00000-0  23790-3 0  9995,2 53012  53.2161  97.2638 0001474  79.9243 280.1916 15.08843646 69575,6917.869,95.437,540.754,538.715,0.0
53012.0,STARLINK-4271,PAYLOAD,2023-10-09 04:46:05,15.08843488,0.0001456,53.2172,95.7769,83.5372,276.5786,0.00021633,3.157e-05,0.0,0 STARLINK-4271,1 53012U 22076AC  23282.19867490  .00003157  00000-0  21633-3 0  9993,2 53012  53.2172  95.7769 0001456  83.5372 276.5786 15.08843488 70096,6917.87,95.437,540.742,538.727,0.0
53012.0,STARLINK-4271,PAYLOAD,2023-10-09 11:07:37,15.08844285,0.0001302,53.2157,94.5875,84.8628,275.2513,0.00019902,2.881e-05,0.0,0 STARLINK-4271,1 53012U 22076AC  23282.46363360  .00002881  00000-0  19902-3 0  9999,2 53012  53.2157  94.5875 0001302  84.8628 275.2513 15.08844285 69663,6917.867,95.437,540.633,538.832,0.0
53012.0,STARLINK-4271,PAYLOAD,2023-10-09 19:04:33,15.08854589,0.0001244,53.2159,93.1009,82.9287,277.1846,0.0003317,4.997e-05,0.0,0 STARLINK-4271,1 53012U 22076AC  23282.79482884  .00004997  00000-0  33170-3 0  9991,2 53012  53.2159  93.1009 0001244  82.9287 277.1846 15.08854589 69718,6917.836,95.437,540.561,538.84,0.0
53012.0,STARLINK-4271,PAYLOAD,2023-10-10 10:58:24,15.0884352,0.0001316,53.2156,90.1271,82.5867,277.5274,9.07e-05,1.156e-05,0.0,0 STARLINK-4271,1 53012U 22076AC  23283.45723102  .00001156  00000-0  90700-4 0  9993,2 53012  53.2156  90.1271 0001316  82.5867 277.5274 15.08843520 70289,6917.87,95.437,540.645,538.824,0.0
53012.0,STARLINK-4271,PAYLOAD,2023-10-10 18:55:20,15.08847516,0.0001217,53.2164,88.6401,74.5053,285.6074,0.00016242,2.299e-05,0.0,0 STARLINK-4271,1 53012U 22076AC  23283.78842913  .00002299  00000-0  16242-3 0  9998,2 53012  53.2164  88.6401 0001217  74.5053 285.6074 15.08847516 69862,6917.857,95.437,540.564,538.881,0.0
53012.0,STARLINK-4271,PAYLOAD,2023-10-11 10:49:12,15.08838391,0.000125,53.2179,85.6694,74.355,285.758,2.854e-05,1.66e-06,0.0,0 STARLINK-4271,1 53012U 22076AC  23284.45083695  .00000166  00000-0  28540-4 0  9993,2 53012  53.2179  85.6694 0001250  74.3550 285.7580 15.08838391 70435,6917.885,95.438,540.615,538.886,0.0
53012.0,STARLINK-4271,PAYLOAD,2023-10-12 04:18:26,15.08848919,0.000123,53.2174,82.397,86.4524,273.6609,3.9188e-06,-2.25e-06,0.0,0 STARLINK-4271,1 53012U 22076AC  23285.17946847 -.00000225  00000-0  39188-5 0  9998,2 53012  53.2174  82.3970 0001230  86.4524 273.6609 15.08848919 70541,6917.853,95.437,540.569,538.867,0.0
53012.0,STARLINK-4271,PAYLOAD,2023-10-12 13:50:45,15.08845221,0.0001374,53.2174,80.6124,79.446,280.6687,8.4547e-05,1.058e-05,0.0,0 STARLINK-4271,1 53012U 22076AC  23285.57691062  .00001058  00000-0  84547-4 0  9990,2 53012  53.2174  80.6124 0001374  79.4460 280.6687 15.08845221 70135,6917.864,95.437,540.68,538.779,0.0
53012.0,STARLINK-4271,PAYLOAD,2023-10-12 17:01:31,15.08849956,0.0001325,53.2178,80.018,74.9467,285.1672,0.00010315,1.355e-05,0.0,0 STARLINK-4271,1 53012U 22076AC  23285.70938693  .00001355  00000-0  10315-3 0  9990,2 53012  53.2178  80.0180 0001325  74.9467 285.1672 15.08849956 70153,6917.85,95.437,540.632,538.798,0.0
53012.0,STARLINK-4271,PAYLOAD,2023-10-13 10:30:46,15.08819655,0.0001428,53.2182,76.7458,92.0626,268.0529,0.00033979,5.121e-05,0.0,0 STARLINK-4271,1 53012U 22076AC  23286.43804100  .00005121  00000-0  33979-3 0  9992,2 53012  53.2182  76.7458 0001428  92.0626 268.0529 15.08819655 70738,6917.943,95.439,540.795,538.82,0.0
53012.0,STARLINK-4271,PAYLOAD,2023-10-13 13:41:33,15.08821963,0.0001429,53.2182,76.1512,90.9894,269.1262,0.0003495,5.276e-05,0.0,0 STARLINK-4271,1 53012U 22076AC  23286.57052096  .00005276  00000-0  34950-3 0  9997,2 53012  53.2182  76.1512 0001429  90.9894 269.1262 15.08821963 70289,6917.936,95.439,540.789,538.812,0.0
53012.0,STARLINK-4271,PAYLOAD,2023-10-13 20:03:04,15.08844849,0.0001411,53.2183,74.9602,89.7665,270.3488,0.0001167,1.57e-05,0.0,0 STARLINK-4271,1 53012U 22076AC  23286.83547001  .00001570  00000-0  11670-3 0  9998,2 53012  53.2183  74.9602 0001411  89.7665 270.3488 15.08844849 70797,6917.866,95.437,540.707,538.754,0.0
53012.0,STARLINK-4271,PAYLOAD,2023-10-14 10:21:33,15.08835991,0.0001399,53.2186,72.283,92.8831,267.2321,3.7717e-05,3.12e-06,0.0,0 STARLINK-4271,1 53012U 22076AC  23287.43163803  .00000312  00000-0  37717-4 0  9993,2 53012  53.2186  72.2830 0001399  92.8831 267.2321 15.08835991 70888,6917.893,95.438,540.725,538.79,0.0
53012.0,STARLINK-4271,PAYLOAD,2023-10-14 13:32:19,15.08839552,0.0001503,53.2182,71.689,92.0025,268.114,9.3926e-06,-1.38e-06,0.0,0 STARLINK-4271,1 53012U 22076AC  23287.56411674 -.00000138  00000-0  93926-5 0  9991,2 53012  53.2182  71.6890 0001503  92.0025 268.1140 15.08839552 70434,6917.882,95.438,540.787,538.707,0.0
53012.0,STARLINK-4271,PAYLOAD,2023-10-14 16:43:05,15.08842853,0.0001485,53.2179,71.0963,87.0058,273.1104,5.3863e-05,5.69e-06,0.0,0 STARLINK-4271,1 53012U 22076AC  23287.69659325  .00000569  00000-0  53863-4 0  9994,2 53012  53.2179  71.0963 0001485  87.0058 273.1104 15.08842853 70922,6917.872,95.437,540.764,538.709,0.0
53012.0,STARLINK-4271,PAYLOAD,2023-10-15 13:23:07,15.08833749,0.0001426,53.2188,67.2285,92.0111,268.1044,1.771e-06,-2.6e-06,0.0,0 STARLINK-4271,1 53012U 22076AC  23288.55772358 -.00000260  00000-0  17710-5 0  9993,2 53012  53.2188  67.2285 0001426  92.0111 268.1044 15.08833749 71053,6917.899,95.438,540.751,538.778,0.0
53012.0,STARLINK-4271,PAYLOAD,2023-10-15 16:33:53,15.08838859,0.0001396,53.2185,66.6353,84.8548,275.2603,5.232e-05,5.45e-06,0.0,0 STARLINK-4271,1 53012U 22076AC  23288.69019950  .00000545  00000-0  52320-4 0  9990,2 53012  53.2185  66.6353 0001396  84.8548 275.2603 15.08838859 70605,6917.884,95.438,540.715,538.783,0.0
53012.0,STARLINK-4271,PAYLOAD,2023-10-16 02:06:12,15.08841529,0.0001428,53.2186,64.8518,86.033,274.0826,2.1247e-05,5e-07,0.0,0 STARLINK-4271,1 53012U 22076AC  23289.08763905  .00000050  00000-0  21247-4 0  9995,2 53012  53.2186  64.8518 0001428  86.0330 274.0826 15.08841529 71139,6917.876,95.437,540.729,538.753,0.0
53012.0,STARLINK-4271,PAYLOAD,2023-10-16 14:49:17,15.08837864,0.0001651,53.2185,62.4731,87.0744,273.0437,9.5339e-05,1.23e-05,0.0,0 STARLINK-4271,1 53012U 22076AC  23289.61756286  .00001230  00000-0  95339-4 0  9992,2 53012  53.2185  62.4731 0001651  87.0744 273.0437 15.08837864 70747,6917.887,95.438,540.894,538.61,0.0
53012.0,STARLINK-4271,PAYLOAD,2023-10-16 16:24:40,15.08841366,0.0001666,53.2189,62.1754,85.3713,274.7469,0.00012452,1.694e-05,0.0,0 STARLINK-4271,1 53012U 22076AC  23289.68380048  .00001694  00000-0  12452-3 0  9996,2 53012  53.2189  62.1754 0001666  85.3713 274.7469 15.08841366 70752,6917.876,95.437,540.894,538.589,0.0
53012.0,STARLINK-4271,PAYLOAD,2023-10-18 01:47:46,15.08840384,0.0001607,53.2194,55.9311,81.4486,278.6689,6.7568e-05,7.87e-06,0.0,0 STARLINK-4271,1 53012U 22076AC  23291.07484405  .00000787  00000-0  67568-4 0  9995,2 53012  53.2194  55.9311 0001607  81.4486 278.6689 15.08840384 71438,6917.879,95.438,540.856,538.633,0.0
53012.0,STARLINK-4271,PAYLOAD,2023-10-18 14:30:52,15.08826046,0.0001534,53.2191,53.5517,82.4879,277.6287,0.00028427,4.237e-05,0.0,0 STARLINK-4271,1 53012U 22076AC  23291.60477023  .00004237  00000-0  28427-3 0  9996,2 53012  53.2191  53.5517 0001534  82.4879 277.6287 15.08826046 71514,6917.923,95.438,540.849,538.727,0.0
